OPTICUBE 04             
1 41851U 16067D   18262.79155078  .00000458  00000-0  45388-4 0  9999
2 41851  97.9219 352.1178 0008463 201.1300 158.9573 14.96702150101244
AEROCUBE 8D             
1 41852U 16067E   18263.23999847 -.00000068  00000-0 -62758-6 0  9991
2 41852  97.9231 352.4070 0009250 202.2346 157.8475 14.96546955101293
AEROCUBE 8C             
1 41853U 16067F   18262.78840475  .00000453  00000-0  45194-4 0  9992
2 41853  97.9229 351.9059 0009614 203.7149 156.3630 14.96510451101225
PROMETHEUS 2-1          
1 41854U 16067G   18263.18854964  .00000559  00000-0  54374-4 0  9993
2 41854  97.9238 352.3452 0010019 202.2672 157.8115 14.96641943101285
PROMETHEUS 2-3          
1 41855U 16067H   18263.19129147  .00000696  00000-0  66350-4 0  9992
2 41855  97.9240 352.3547 0010146 202.4052 157.6727 14.96641901101280
ITF-2                   
1 41932U 98067KU  18262.31334286  .00053754  00000-0  23881-3 0  9997
2 41932  51.6285 213.3819 0002632 153.6703 206.4434 15.83796968 95642
WASEDA-SAT3             
1 41933U 98067KV  18263.07979131  .00281563  46728-4  41156-3 0  9993
2 41933  51.6265 194.1717 0003494 160.5733 199.5413 16.04608289 95967
AOBA-VELOX 3            
1 41935U 98067KX  18263.03793611  .00113934  16152-4  31686-3 0  9999
2 41935  51.6304 200.8540 0003184 146.0566 214.0646 15.93591128 95973
INS-1B                  
1 41954U 17008G   18262.39817218  .00001143  00000-0  51234-4 0  9995
2 41954  97.4375 325.5395 0010100  32.0835 328.1015 15.23241539 88343
BGUSAT                  
1 41999U 17008BD  18262.85992402  .00001833  00000-0  76405-4 0  9997
2 41999  97.4424 327.3503 0009460  47.1374 313.0657 15.24963122 87850
DIDO-2                  
1 42000U 17008BE  18262.72406410  .00000852  00000-0  38781-4 0  9991
2 42000  97.4390 326.3383 0009788  48.4333 311.7742 15.23376070 87795
PEASSS                  
1 42015U 17008BV  18263.17640577  .00000935  00000-0  41263-4 0  9992
2 42015  97.4389 327.3600 0007800  55.1284 305.0685 15.24220358 88381
AL-FARABI 1             
1 42016U 17008BW  18263.20728811  .00001220  00000-0  52229-4 0  9997
2 42016  97.4399 327.6620 0007659  55.2973 304.8985 15.24687438 88528
NAYIF-1 (EO-88)         
1 42017U 17008BX  18262.41245888  .00001350  00000-0  57464-4 0  9998
2 42017  97.4397 326.8802 0007707  57.8641 302.3343 15.24711517 88420
HAVELSAT                
1 42700U 98067LH  18263.14052368  .00036058  00000-0  22083-3 0  9992
2 42700  51.6282 227.2777 0000949 263.3986  96.6906 15.76950106 76977
CXBN-2                  
1 42704U 98067LM  18263.12600563  .00033870  00000-0  21209-3 0  9998
2 42704  51.6320 228.7157 0002280 119.8088 240.3139 15.76476449 76878
ICECUBE                 
1 42705U 98067LN  18263.17888060  .00316467  55007-4  51713-3 0  9994
2 42705  51.6467 210.3132 0001940 203.9113 156.1809 16.02745056 77183
PHOENIX                 
1 42706U 98067LP  18263.14066858  .00023174  00000-0  16915-3 0  9999
2 42706  51.6329 231.0811 0001553 113.8750 246.2412 15.73151064 76830
X-CUBESAT               
1 42707U 98067LQ  18263.13570476  .00040750  00000-0  23583-3 0  9993
2 42707  51.6300 226.4003 0001923 118.1101 242.0095 15.78165736 76882
QBEE50-LTU-OC           
1 42708U 98067LR  18263.14802406  .00031812  00000-0  19802-3 0  9994
2 42708  51.6296 228.0881 0001690  96.6736 263.4456 15.76646054 76821
ALTAIR PATHFINDER       
1 42711U 98067LS  18263.17324333  .00013639  00000-0  13100-3 0  9991
2 42711  51.6340 241.8528 0003224 156.4569 203.6575 15.66929187 76356
SHARC                   
1 42712U 98067LT  18263.19691290  .00021241  00000-0  18719-3 0  9992
2 42712  51.6351 242.8300 0001937 126.6582 233.4593 15.68679771 76580
ZA-AEROSAT              
1 42713U 98067LU  18263.19105629  .00019719  00000-0  15390-3 0  9998
2 42713  51.6327 234.4098 0002377 127.0273 233.0942 15.71677739 76452
LINK                    
1 42714U 98067LV  18263.33754753  .01459643  11827-4  77214-3 0  9994
2 42714  51.6164 207.0141 0003874 195.6769 164.4109 16.19332525 76930
CSUNSAT 1               
1 42715U 98067LW  18263.16064382  .00024964  00000-0  18508-3 0  9999
2 42715  51.6329 233.4754 0003374 141.2826 218.8414 15.72730398 76462
SPACECUBE               
1 42717U 98067LY  18263.11983417  .00033925  00000-0  21210-3 0  9996
2 42717  51.6260 228.5944 0000105 160.1479 199.9525 15.76511858 75897
HOOPOE                  
1 42718U 98067LZ  18263.12059580  .00056252  00000-0  27524-3 0  9995
2 42718  51.6265 223.3020 0001413 120.9633 239.1509 15.81717125 75968
NJUST-1                 
1 42722U 98067MB  18263.18862125  .00018904  00000-0  15563-3 0  9995
2 42722  51.6333 236.6810 0003110 220.2039 139.8729 15.70424477 75494
UNSW-ECO                
1 42723U 98067MC  18263.17499819  .00060061  00000-0  26673-3 0  9996
2 42723  51.6364 222.2655 0001452 158.1018 202.0047 15.83762186 75661
LILACSAT-1              
1 42725U 98067ME  18263.17198413  .00029938  00000-0  20648-3 0  9998
2 42725  51.6329 232.0405 0001889 209.1728 150.9165 15.74319203 75452
NSIGHT-1                
1 42726U 98067MF  18263.17763164  .00010013  00000-0  11321-3 0  9992
2 42726  51.6373 247.9778 0003857 223.9058 136.1630 15.63139686 75251
SNUSAT-1                
1 42727U 98067MG  18263.12176510  .00027469  00000-0  19017-3 0  9994
2 42727  51.6318 232.3783 0004312 172.8378 187.2684 15.74274195 75410
I-INSPIRE II            
1 42731U 98067ML  18263.18540282  .00061734  00000-0  26279-3 0  9997
2 42731  51.6321 220.7166 0004061 136.2274 223.9052 15.84633712 75462
POLYITAN-2-SAU          
1 42732U 98067MM  18263.15602182  .00040028  00000-0  23464-3 0  9999
2 42732  51.6318 227.3467 0004267 151.3997 208.7238 15.77879086 75379
SNUSAT-1B               
1 42733U 98067MN  18263.16637191  .00031174  00000-0  20478-3 0  9993
2 42733  51.6307 230.4555 0004043 160.8099 199.3053 15.75418454 75333
EXALTA-1                
1 42734U 98067MP  18263.16079214  .00085232  00000-0  32400-3 0  9992
2 42734  51.6240 219.6772 0002813 158.8251 201.2870 15.86855558 75422
BEEAGLESAT              
1 42736U 98067MR  18263.14180905  .00026410  00000-0  19190-3 0  9996
2 42736  51.6316 233.3058 0002912 213.9808 146.1004 15.73170634 75358
UCLSAT                  
1 42765U 17036A   18263.21327428  .00000982  00000-0  45874-4 0  9991
2 42765  97.3917 321.4931 0013459 102.2992 257.9752 15.22068823 69168
LITUANICASAT-2          
1 42768U 17036D   18263.16487995  .00001715  00000-0  78539-4 0  9993
2 42768  97.3937 321.0093 0017329  93.9270 266.3947 15.21722978 69003
AALTO-1                 
1 42775U 17036L   18262.71354336  .00000694  00000-0  34399-4 0  9994
2 42775  97.3909 320.3201 0015887  93.6708 266.6344 15.20894673 68861
URSA MAIOR              
1 42776U 17036M   18263.15532701  .00000720  00000-0  35487-4 0  9997
2 42776  97.3916 320.8253 0015731  92.4630 267.8406 15.20988465 68934
COMPASS 2               
1 42777U 17036N   18262.88980670  .00001325  00000-0  60899-4 0  9996
2 42777  97.3940 321.1170 0014607  96.0895 264.2006 15.22017635 68917
DIAMOND RED             
1 42783U 17036U   18262.11974650  .00000818  00000-0  39177-4 0  9991
2 42783  97.3918 320.2183 0014051 105.8735 254.4051 15.21641518 68797
PEGASUS                 
1 42784U 17036V   18262.80261642  .00001016  00000-0  47624-4 0  9995
2 42784  97.3920 320.9914 0013978 103.6497 256.6296 15.21868252 68902
DIAMOND GREEN           
1 42785U 17036W   18262.71034539  .00000832  00000-0  39807-4 0  9998
2 42785  97.3920 320.8145 0013965 104.5580 255.7206 15.21643445 68879
DIAMOND BLUE            
1 42786U 17036X   18263.10407270  .00000839  00000-0  40109-4 0  9993
2 42786  97.3919 321.2008 0013814 103.5442 256.7333 15.21645431 68936
NUDTSAT                 
1 42787U 17036Y   18263.20819226  .00001420  00000-0  64118-4 0  9996
2 42787  97.3929 321.6898 0013520 101.9620 258.3133 15.22536420 68825
SUCHAI                  
1 42788U 17036Z   18263.13656208  .00001140  00000-0  52619-4 0  9990
2 42788  97.3922 321.4605 0013589 102.4126 257.8632 15.22172442 69037
SKCUBE                  
1 42789U 17036AA  18262.21842669  .00001150  00000-0  53150-4 0  9999
2 42789  97.3920 320.5434 0013419 105.2104 255.0617 15.22117636 68817
VZLUSAT-1               
1 42790U 17036AB  18262.60489621  .00001498  00000-0  67464-4 0  9997
2 42790  97.3927 321.1030 0013057 104.0170 256.2519 15.22550154 68880
ROBUSTA-1B              
1 42792U 17036AD  18262.76956534  .00001175  00000-0  53980-4 0  9998
2 42792  97.3919 321.1674 0012996 104.2692 255.9988 15.22273523 68911
CICERO 6                
1 42793U 17036AE  18262.38118024  .00000933  00000-0  43774-4 0  9992
2 42793  97.3910 320.7448 0012119 106.3647 253.8922 15.22054091 68920
D-SAT                   
1 42794U 17036AF  18263.14578152  .00000216  00000-0  24520-4 0  9992
2 42794  97.5819 314.1648 0126039 326.8213  32.5145 14.90929408 67874
TOKI                    
1 42820U 98067MU  18263.20625248  .00022316  00000-0  17037-3 0  9990
2 42820  51.6323 236.0030 0002961 125.1263 235.0013 15.72111672 68786
MAZAALAI (NUMSAT-1)     
1 42822U 98067MW  18262.36991539  .00026964  00000-0  20866-3 0  9994
2 42822  51.6325 240.9288 0002830 125.4899 234.6363 15.71666521 68625
BRAC ONNESHA            
1 42823U 98067MX  18263.18440678  .00024390  00000-0  18744-3 0  9992
2 42823  51.6329 236.6407 0003780 164.9266 195.1845 15.71891064 68758
NIGERIAEDUSAT-1         
1 42824U 98067MY  18262.39715632  .00026207  00000-0  20402-3 0  9993
2 42824  51.6333 241.1563 0003643 162.4198 197.6927 15.71537897 68617
CORVUS BC2              
1 42846U 17042X   18263.18175204  .00000029  00000-0  81495-5 0  9999
2 42846  97.5869 162.5769 0008243 235.2684 124.7759 14.91857205 64538
CORVUS BC1              
1 42847U 17042Y   18262.68365729  .00000175  00000-0  22566-4 0  9992
2 42847  97.5867 162.1609 0007921 236.7857 123.2603 14.91956487 64451
